{"type": "FeatureCollection", "properties": {"source": "rwl_manual_hr_cwc_005_2021_2025.csv (verified CWC dataset), summarized in station_summary.csv", "status": "OBSERVED", "note": "All 58 station coordinates read directly from the CWC dataset. Deep per-station analysis (episode detection, full daily chart) is available for Naraj, Alipingal, Nimapara (is_focus_station=true); other stations show summary stats only."}, "features": [{"type": "Feature", "properties": {"name": "Alipingal", "river": "Mahanadi", "local_river": "Mahanadi", "state": "Odisha", "district": "JAGATSINGHAPUR", "is_mainstem": true, "is_focus_station": true, "n_obs": 21267, "date_range_start": "2021-01-01", "date_range_end": "2025-12-31", "min_wl_m": 1.2, "max_wl_m": 12.06, "mean_wl_m": 3.189, "days_with_zero_readings": 25, "has_daily_chart": true, "status": "OBSERVED"}, "geometry": {"type": "Point", "coordinates": [86.14666667, 20.22083333]}}, {"type": "Feature", "properties": {"name": "Andhiyarkhore", "river": "Mahanadi", "local_river": "Hamp", "state": "Chhattisgarh", "district": "BEMETARA", "is_mainstem": false, "is_focus_station": false, "n_obs": 16882, "date_range_start": "2021-01-01", "date_range_end": "2025-11-06", "min_wl_m": 253.27, "max_wl_m": 260.2, "mean_wl_m": 254.404, "days_with_zero_readings": 188, "has_daily_chart": false, "status": "OBSERVED"}, "geometry": {"type": "Point", "coordinates": [81.59722222, 21.83472222]}}, {"type": "Feature", "properties": {"name": "Arampur", "river": "Mahanadi", "local_river": "-", "state": "Odisha", "district": "ANUGUL", "is_mainstem": false, "is_focus_station": false, "n_obs": 21224, "date_range_start": "2021-01-01", "date_range_end": "2025-12-31", "min_wl_m": 122.48, "max_wl_m": 128.9, "mean_wl_m": 123.207, "days_with_zero_readings": 25, "has_daily_chart": false, "status": "OBSERVED"}, "geometry": {"type": "Point", "coordinates": [84.61333333, 20.80916667]}}, {"type": "Feature", "properties": {"name": "BANGODAM RESERVOIR", "river": "Mahanadi", "local_river": "Hasdeo", "state": "Chhattisgarh", "district": "KORBA", "is_mainstem": false, "is_focus_station": false, "n_obs": 929, "date_range_start": "2021-06-01", "date_range_end": "2025-12-31", "min_wl_m": 343.13, "max_wl_m": 359.41, "mean_wl_m": 353.443, "days_with_zero_readings": 779, "has_daily_chart": false, "status": "OBSERVED"}, "geometry": {"type": "Point", "coordinates": [82.57, 22.59]}}, {"type": "Feature", "properties": {"name": "Balakati", "river": "Mahanadi", "local_river": "Bhargavi", "state": "Odisha", "district": "KHORDHA", "is_mainstem": false, "is_focus_station": false, "n_obs": 19427, "date_range_start": "2021-01-01", "date_range_end": "2025-12-31", "min_wl_m": 7.9, "max_wl_m": 16.77, "mean_wl_m": 10.671, "days_with_zero_readings": 224, "has_daily_chart": false, "status": "OBSERVED"}, "geometry": {"type": "Point", "coordinates": [85.8625, 20.20222222]}}, {"type": "Feature", "properties": {"name": "Balanga", "river": "Mahanadi", "local_river": "Bhargavi", "state": "Odisha", "district": "PURI", "is_mainstem": false, "is_focus_station": false, "n_obs": 18899, "date_range_start": "2021-01-01", "date_range_end": "2025-12-31", "min_wl_m": 0.18, "max_wl_m": 12.2, "mean_wl_m": 4.787, "days_with_zero_readings": 399, "has_daily_chart": false, "status": "OBSERVED"}, "geometry": {"type": "Point", "coordinates": [85.87888889, 20.03916667]}}, {"type": "Feature", "properties": {"name": "Bamnidhi", "river": "Mahanadi", "local_river": "Hasdeo", "state": "Chhattisgarh", "district": "JANJGIR - CHAMPA", "is_mainstem": false, "is_focus_station": false, "n_obs": 16959, "date_range_start": "2021-01-01", "date_range_end": "2025-12-31", "min_wl_m": 24.35, "max_wl_m": 227.21, "mean_wl_m": 224.736, "days_with_zero_readings": 129, "has_daily_chart": false, "status": "OBSERVED"}, "geometry": {"type": "Point", "coordinates": [82.71333333, 21.9]}}, {"type": "Feature", "properties": {"name": "Bangodam", "river": "Mahanadi", "local_river": "Hasdeo", "state": "Chhattisgarh", "district": "KORBA", "is_mainstem": false, "is_focus_station": false, "n_obs": 18411, "date_range_start": "2021-01-01", "date_range_end": "2025-10-31", "min_wl_m": 224.25, "max_wl_m": 298.795, "mean_wl_m": 292.634, "days_with_zero_readings": 251, "has_daily_chart": false, "status": "OBSERVED"}, "geometry": {"type": "Point", "coordinates": [82.58, 22.6]}}, {"type": "Feature", "properties": {"name": "Baronda", "river": "Mahanadi", "local_river": "Pairi", "state": "Chhattisgarh", "district": "GARIABAND", "is_mainstem": false, "is_focus_station": false, "n_obs": 17526, "date_range_start": "2021-01-01", "date_range_end": "2025-11-06", "min_wl_m": 283.7, "max_wl_m": 288.32, "mean_wl_m": 284.332, "days_with_zero_readings": 163, "has_daily_chart": false, "status": "OBSERVED"}, "geometry": {"type": "Point", "coordinates": [81.88722222, 20.91055556]}}, {"type": "Feature", "properties": {"name": "Basantpur", "river": "Mahanadi", "local_river": "Mahanadi", "state": "Chhattisgarh", "district": "JANJGIR - CHAMPA", "is_mainstem": true, "is_focus_station": false, "n_obs": 20430, "date_range_start": "2021-01-01", "date_range_end": "2025-12-26", "min_wl_m": 207.01, "max_wl_m": 217.23, "mean_wl_m": 209.797, "days_with_zero_readings": 36, "has_daily_chart": false, "status": "OBSERVED"}, "geometry": {"type": "Point", "coordinates": [82.78805556, 21.7275]}}, {"type": "Feature", "properties": {"name": "Bhingarpur", "river": "Mahanadi", "local_river": "Kusavadra", "state": "Odisha", "district": "KHORDHA", "is_mainstem": false, "is_focus_station": false, "n_obs": 18858, "date_range_start": "2021-01-01", "date_range_end": "2025-12-31", "min_wl_m": 8.82, "max_wl_m": 15.86, "mean_wl_m": 9.462, "days_with_zero_readings": 405, "has_daily_chart": false, "status": "OBSERVED"}, "geometry": {"type": "Point", "coordinates": [85.93305556, 20.26277778]}}, {"type": "Feature", "properties": {"name": "Boudh", "river": "Mahanadi", "local_river": "Mahanadi", "state": "Odisha", "district": "ANUGUL", "is_mainstem": true, "is_focus_station": false, "n_obs": 20114, "date_range_start": "2021-01-01", "date_range_end": "2025-12-30", "min_wl_m": 80.2, "max_wl_m": 89.35, "mean_wl_m": 82.42, "days_with_zero_readings": 118, "has_daily_chart": false, "status": "OBSERVED"}, "geometry": {"type": "Point", "coordinates": [84.31555556, 20.865]}}, {"type": "Feature", "properties": {"name": "Daya Rd.Bridge", "river": "Mahanadi", "local_river": "Daya", "state": "Odisha", "district": "KHORDHA", "is_mainstem": false, "is_focus_station": false, "n_obs": 18880, "date_range_start": "2021-01-01", "date_range_end": "2025-12-31", "min_wl_m": 8.86, "max_wl_m": 16.74, "mean_wl_m": 10.312, "days_with_zero_readings": 406, "has_daily_chart": false, "status": "OBSERVED"}, "geometry": {"type": "Point", "coordinates": [85.85138889, 20.20916667]}}, {"type": "Feature", "properties": {"name": "Deogaon", "river": "Mahanadi", "local_river": "Mahanadi", "state": "Odisha", "district": "SAMBALPUR", "is_mainstem": true, "is_focus_station": false, "n_obs": 21117, "date_range_start": "2021-01-01", "date_range_end": "2025-12-31", "min_wl_m": 120.0, "max_wl_m": 129.3, "mean_wl_m": 121.94, "days_with_zero_readings": 29, "has_daily_chart": false, "status": "OBSERVED"}, "geometry": {"type": "Point", "coordinates": [83.91222222, 21.22194444]}}, {"type": "Feature", "properties": {"name": "Dharamjaigarh", "river": "Mahanadi", "local_river": "Mand", "state": "Chhattisgarh", "district": "RAIGARH", "is_mainstem": false, "is_focus_station": false, "n_obs": 17351, "date_range_start": "2021-01-01", "date_range_end": "2025-10-31", "min_wl_m": 270.43, "max_wl_m": 277.4, "mean_wl_m": 271.277, "days_with_zero_readings": 190, "has_daily_chart": false, "status": "OBSERVED"}, "geometry": {"type": "Point", "coordinates": [83.21416667, 22.47722222]}}, {"type": "Feature", "properties": {"name": "Ghatora", "river": "Mahanadi", "local_river": "Arpa", "state": "Chhattisgarh", "district": "BILASPUR", "is_mainstem": false, "is_focus_station": false, "n_obs": 18086, "date_range_start": "2021-01-01", "date_range_end": "2025-12-08", "min_wl_m": 246.0, "max_wl_m": 250.9, "mean_wl_m": 246.707, "days_with_zero_readings": 69, "has_daily_chart": false, "status": "OBSERVED"}, "geometry": {"type": "Point", "coordinates": [82.22166667, 22.04861111]}}, {"type": "Feature", "properties": {"name": "Gunderdehi", "river": "Mahanadi", "local_river": "Tandula", "state": "Chhattisgarh", "district": "BALOD", "is_mainstem": false, "is_focus_station": false, "n_obs": 19694, "date_range_start": "2021-01-01", "date_range_end": "2025-12-31", "min_wl_m": 193.43, "max_wl_m": 295.6, "mean_wl_m": 292.974, "days_with_zero_readings": 112, "has_daily_chart": false, "status": "OBSERVED"}, "geometry": {"type": "Point", "coordinates": [81.295, 20.95388889]}}, {"type": "Feature", "properties": {"name": "Hirakud Reservoir", "river": "Mahanadi", "local_river": "Mahanadi", "state": "Odisha", "district": "SAMBALPUR", "is_mainstem": true, "is_focus_station": false, "n_obs": 42995, "date_range_start": "2021-01-01", "date_range_end": "2025-12-31", "min_wl_m": 182.02, "max_wl_m": 192.02, "mean_wl_m": 188.532, "days_with_zero_readings": 26, "has_daily_chart": false, "status": "OBSERVED"}, "geometry": {"type": "Point", "coordinates": [83.85, 21.52]}}, {"type": "Feature", "properties": {"name": "Jamadarpali", "river": "Mahanadi", "local_river": "Mahanadi", "state": "Odisha", "district": "SAMBALPUR", "is_mainstem": true, "is_focus_station": false, "n_obs": 18154, "date_range_start": "2021-01-01", "date_range_end": "2025-10-31", "min_wl_m": 180.52, "max_wl_m": 195.85, "mean_wl_m": 188.105, "days_with_zero_readings": 200, "has_daily_chart": false, "status": "OBSERVED"}, "geometry": {"type": "Point", "coordinates": [83.98166667, 21.56722222]}}, {"type": "Feature", "properties": {"name": "Jondhra", "river": "Mahanadi", "local_river": "Seonath", "state": "Chhattisgarh", "district": "BILASPUR", "is_mainstem": false, "is_focus_station": false, "n_obs": 17160, "date_range_start": "2021-01-01", "date_range_end": "2025-10-31", "min_wl_m": 219.9, "max_wl_m": 230.0, "mean_wl_m": 223.233, "days_with_zero_readings": 266, "has_daily_chart": false, "status": "OBSERVED"}, "geometry": {"type": "Point", "coordinates": [82.33833333, 21.71694444]}}, {"type": "Feature", "properties": {"name": "KALMA", "river": "Mahanadi", "local_river": "Mahanadi", "state": "Chhattisgarh", "district": "JANJGIR - CHAMPA", "is_mainstem": true, "is_focus_station": false, "n_obs": 21076, "date_range_start": "2021-01-01", "date_range_end": "2025-12-31", "min_wl_m": 192.93, "max_wl_m": 201.49, "mean_wl_m": 195.61, "days_with_zero_readings": 26, "has_daily_chart": false, "status": "OBSERVED"}, "geometry": {"type": "Point", "coordinates": [83.27777778, 21.69472222]}}, {"type": "Feature", "properties": {"name": "Kanas (S)", "river": "Mahanadi", "local_river": "Daya", "state": "Odisha", "district": "PURI", "is_mainstem": false, "is_focus_station": false, "n_obs": 17231, "date_range_start": "2021-06-01", "date_range_end": "2025-11-01", "min_wl_m": 0.26, "max_wl_m": 5.57, "mean_wl_m": 1.859, "days_with_zero_readings": 892, "has_daily_chart": false, "status": "OBSERVED"}, "geometry": {"type": "Point", "coordinates": [85.64361111, 20.00388889]}}, {"type": "Feature", "properties": {"name": "Kantamal", "river": "Mahanadi", "local_river": "Tel", "state": "Odisha", "district": "BAUDH", "is_mainstem": false, "is_focus_station": false, "n_obs": 21079, "date_range_start": "2021-01-01", "date_range_end": "2025-12-31", "min_wl_m": 119.37, "max_wl_m": 128.86, "mean_wl_m": 121.164, "days_with_zero_readings": 55, "has_daily_chart": false, "status": "OBSERVED"}, "geometry": {"type": "Point", "coordinates": [83.7275, 20.655]}}, {"type": "Feature", "properties": {"name": "Katghora", "river": "Mahanadi", "local_river": "Hasdeo", "state": "Chhattisgarh", "district": "KORBA", "is_mainstem": false, "is_focus_station": false, "n_obs": 17361, "date_range_start": "2021-01-01", "date_range_end": "2025-12-31", "min_wl_m": 309.64, "max_wl_m": 312.79, "mean_wl_m": 310.77, "days_with_zero_readings": 400, "has_daily_chart": false, "status": "OBSERVED"}, "geometry": {"type": "Point", "coordinates": [82.53861111, 22.49166667]}}, {"type": "Feature", "properties": {"name": "Kathajori Rd.Bridge", "river": "Mahanadi", "local_river": "Kathajori", "state": "Odisha", "district": "CUTTACK", "is_mainstem": false, "is_focus_station": false, "n_obs": 18582, "date_range_start": "2021-04-01", "date_range_end": "2025-12-31", "min_wl_m": 1.0, "max_wl_m": 22.28, "mean_wl_m": 15.001, "days_with_zero_readings": 406, "has_daily_chart": false, "status": "OBSERVED"}, "geometry": {"type": "Point", "coordinates": [85.88805556, 20.43833333]}}, {"type": "Feature", "properties": {"name": "Kelo at Raigarh", "river": "Mahanadi", "local_river": "Kelo", "state": "Chhattisgarh", "district": "RAIGARH", "is_mainstem": false, "is_focus_station": false, "n_obs": 19074, "date_range_start": "2021-01-01", "date_range_end": "2025-12-31", "min_wl_m": 223.37, "max_wl_m": 228.5, "mean_wl_m": 224.572, "days_with_zero_readings": 100, "has_daily_chart": false, "status": "OBSERVED"}, "geometry": {"type": "Point", "coordinates": [83.39916667, 21.89111111]}}, {"type": "Feature", "properties": {"name": "Kesinga", "river": "Mahanadi", "local_river": "Tel", "state": "Odisha", "district": "KALAHANDI", "is_mainstem": false, "is_focus_station": false, "n_obs": 20783, "date_range_start": "2021-01-01", "date_range_end": "2025-12-31", "min_wl_m": 68.9, "max_wl_m": 174.31, "mean_wl_m": 169.617, "days_with_zero_readings": 26, "has_daily_chart": false, "status": "OBSERVED"}, "geometry": {"type": "Point", "coordinates": [83.21944444, 20.19861111]}}, {"type": "Feature", "properties": {"name": "Khairmal", "river": "Mahanadi", "local_river": "Mahanadi", "state": "Odisha", "district": "BAUDH", "is_mainstem": true, "is_focus_station": false, "n_obs": 20832, "date_range_start": "2021-01-01", "date_range_end": "2025-12-31", "min_wl_m": 9.55, "max_wl_m": 107.39, "mean_wl_m": 101.472, "days_with_zero_readings": 27, "has_daily_chart": false, "status": "OBSERVED"}, "geometry": {"type": "Point", "coordinates": [83.98, 20.82833333]}}, {"type": "Feature", "properties": {"name": "Khandapara", "river": "Mahanadi", "local_river": "Kusumi", "state": "Odisha", "district": "NAYAGARH", "is_mainstem": false, "is_focus_station": false, "n_obs": 19721, "date_range_start": "2021-01-01", "date_range_end": "2025-11-01", "min_wl_m": 6.57, "max_wl_m": 53.62, "mean_wl_m": 47.19, "days_with_zero_readings": 252, "has_daily_chart": false, "status": "OBSERVED"}, "geometry": {"type": "Point", "coordinates": [85.18611111, 20.2575]}}, {"type": "Feature", "properties": {"name": "Kishan Nagar", "river": "Mahanadi", "local_river": "Mahanadi", "state": "Odisha", "district": "CUTTACK", "is_mainstem": true, "is_focus_station": false, "n_obs": 20288, "date_range_start": "2021-01-01", "date_range_end": "2025-12-30", "min_wl_m": 0.52, "max_wl_m": 15.97, "mean_wl_m": 12.29, "days_with_zero_readings": 58, "has_daily_chart": false, "status": "OBSERVED"}, "geometry": {"type": "Point", "coordinates": [86.08916667, 20.42666667]}}, {"type": "Feature", "properties": {"name": "Korba", "river": "Mahanadi", "local_river": "Hasdeo", "state": "Chhattisgarh", "district": "KORBA", "is_mainstem": false, "is_focus_station": false, "n_obs": 19759, "date_range_start": "2021-01-01", "date_range_end": "2025-11-01", "min_wl_m": 246.77, "max_wl_m": 276.93, "mean_wl_m": 274.89, "days_with_zero_readings": 187, "has_daily_chart": false, "status": "OBSERVED"}, "geometry": {"type": "Point", "coordinates": [82.70277778, 22.39333333]}}, {"type": "Feature", "properties": {"name": "Kotni", "river": "Mahanadi", "local_river": "Seonath", "state": "Chhattisgarh", "district": "DURG", "is_mainstem": false, "is_focus_station": false, "n_obs": 19057, "date_range_start": "2021-01-01", "date_range_end": "2025-11-06", "min_wl_m": 26.13, "max_wl_m": 279.0, "mean_wl_m": 272.291, "days_with_zero_readings": 19, "has_daily_chart": false, "status": "OBSERVED"}, "geometry": {"type": "Point", "coordinates": [81.24111111, 21.22083333]}}, {"type": "Feature", "properties": {"name": "Kurubhata", "river": "Mahanadi", "local_river": "Mand", "state": "Chhattisgarh", "district": "RAIGARH", "is_mainstem": false, "is_focus_station": false, "n_obs": 20758, "date_range_start": "2021-01-01", "date_range_end": "2025-12-31", "min_wl_m": 214.26, "max_wl_m": 220.12, "mean_wl_m": 215.618, "days_with_zero_readings": 28, "has_daily_chart": false, "status": "OBSERVED"}, "geometry": {"type": "Point", "coordinates": [83.21055556, 21.98111111]}}, {"type": "Feature", "properties": {"name": "MALGAON", "river": "Mahanadi", "local_river": "Pairi", "state": "Chhattisgarh", "district": "GARIABAND", "is_mainstem": false, "is_focus_station": false, "n_obs": 17458, "date_range_start": "2021-01-01", "date_range_end": "2025-12-31", "min_wl_m": 32.87, "max_wl_m": 327.86, "mean_wl_m": 325.108, "days_with_zero_readings": 383, "has_daily_chart": false, "status": "OBSERVED"}, "geometry": {"type": "Point", "coordinates": [82.03861111, 20.65722222]}}, {"type": "Feature", "properties": {"name": "Mahulpali", "river": "Mahanadi", "local_river": "Bheden", "state": "Odisha", "district": "SAMBALPUR", "is_mainstem": false, "is_focus_station": false, "n_obs": 18902, "date_range_start": "2021-01-01", "date_range_end": "2025-12-31", "min_wl_m": 245.0, "max_wl_m": 252.5, "mean_wl_m": 246.945, "days_with_zero_readings": 34, "has_daily_chart": false, "status": "OBSERVED"}, "geometry": {"type": "Point", "coordinates": [84.38, 21.86638889]}}, {"type": "Feature", "properties": {"name": "Manendragarh", "river": "Mahanadi", "local_river": "Hasdeo", "state": "Chhattisgarh", "district": "KORIYA", "is_mainstem": false, "is_focus_station": false, "n_obs": 18458, "date_range_start": "2021-01-01", "date_range_end": "2025-11-01", "min_wl_m": 41.3, "max_wl_m": 416.86, "mean_wl_m": 412.247, "days_with_zero_readings": 211, "has_daily_chart": false, "status": "OBSERVED"}, "geometry": {"type": "Point", "coordinates": [82.21444444, 23.20138889]}}, {"type": "Feature", "properties": {"name": "Maniyari", "river": "Mahanadi", "local_river": "Maniari", "state": "Chhattisgarh", "district": "MUNGELI", "is_mainstem": false, "is_focus_station": false, "n_obs": 15071, "date_range_start": "2021-01-01", "date_range_end": "2025-12-31", "min_wl_m": 220.41, "max_wl_m": 236.23, "mean_wl_m": 230.519, "days_with_zero_readings": 597, "has_daily_chart": false, "status": "OBSERVED"}, "geometry": {"type": "Point", "coordinates": [82.0025, 21.91611111]}}, {"type": "Feature", "properties": {"name": "Marshaghai", "river": "Mahanadi", "local_river": "Mahanadi", "state": "Odisha", "district": "KENDRAPARA", "is_mainstem": true, "is_focus_station": false, "n_obs": 19325, "date_range_start": "2021-01-01", "date_range_end": "2025-11-01", "min_wl_m": -0.78, "max_wl_m": 5.92, "mean_wl_m": 1.239, "days_with_zero_readings": 251, "has_daily_chart": false, "status": "OBSERVED"}, "geometry": {"type": "Point", "coordinates": [86.4925, 20.40916667]}}, {"type": "Feature", "properties": {"name": "Naraj", "river": "Mahanadi", "local_river": "Mahanadi", "state": "Odisha", "district": "CUTTACK", "is_mainstem": true, "is_focus_station": true, "n_obs": 21257, "date_range_start": "2021-01-01", "date_range_end": "2025-12-31", "min_wl_m": 20.29, "max_wl_m": 27.49, "mean_wl_m": 22.473, "days_with_zero_readings": 25, "has_daily_chart": true, "status": "OBSERVED"}, "geometry": {"type": "Point", "coordinates": [85.76555556, 20.47166667]}}, {"type": "Feature", "properties": {"name": "Nimapara", "river": "Mahanadi", "local_river": "Kusavadra", "state": "Odisha", "district": "PURI", "is_mainstem": false, "is_focus_station": true, "n_obs": 21245, "date_range_start": "2021-01-01", "date_range_end": "2025-12-31", "min_wl_m": 2.44, "max_wl_m": 10.58, "mean_wl_m": 3.595, "days_with_zero_readings": 25, "has_daily_chart": true, "status": "OBSERVED"}, "geometry": {"type": "Point", "coordinates": [86.00638889, 20.06083333]}}, {"type": "Feature", "properties": {"name": "Padampur", "river": "Mahanadi", "local_river": "Ong", "state": "Odisha", "district": "BARGARH", "is_mainstem": false, "is_focus_station": false, "n_obs": 20637, "date_range_start": "2021-01-01", "date_range_end": "2025-12-31", "min_wl_m": 71.34, "max_wl_m": 17242.0, "mean_wl_m": 173.344, "days_with_zero_readings": 62, "has_daily_chart": false, "status": "OBSERVED"}, "geometry": {"type": "Point", "coordinates": [83.10305556, 21.01583333]}}, {"type": "Feature", "properties": {"name": "Padmavati", "river": "Mahanadi", "local_river": "Mahanadi", "state": "Odisha", "district": "NAYAGARH", "is_mainstem": true, "is_focus_station": false, "n_obs": 21097, "date_range_start": "2021-01-01", "date_range_end": "2025-12-31", "min_wl_m": 32.25, "max_wl_m": 45.02, "mean_wl_m": 37.502, "days_with_zero_readings": 31, "has_daily_chart": false, "status": "OBSERVED"}, "geometry": {"type": "Point", "coordinates": [85.29611111, 20.34388889]}}, {"type": "Feature", "properties": {"name": "Parmanpur", "river": "Mahanadi", "local_river": "Bheden", "state": "Odisha", "district": "JHARSUGUDA", "is_mainstem": false, "is_focus_station": false, "n_obs": 21079, "date_range_start": "2021-01-01", "date_range_end": "2025-11-12", "min_wl_m": 171.64, "max_wl_m": 212.5, "mean_wl_m": 202.376, "days_with_zero_readings": 24, "has_daily_chart": false, "status": "OBSERVED"}, "geometry": {"type": "Point", "coordinates": [84.10611111, 21.78944444]}}, {"type": "Feature", "properties": {"name": "Pathardihi", "river": "Mahanadi", "local_river": "kharun", "state": "Chhattisgarh", "district": "RAIPUR", "is_mainstem": false, "is_focus_station": false, "n_obs": 18415, "date_range_start": "2021-01-01", "date_range_end": "2025-11-06", "min_wl_m": 247.0, "max_wl_m": 277.62, "mean_wl_m": 272.847, "days_with_zero_readings": 18, "has_daily_chart": false, "status": "OBSERVED"}, "geometry": {"type": "Point", "coordinates": [81.59277778, 21.34194444]}}, {"type": "Feature", "properties": {"name": "Pubansa (S)", "river": "Mahanadi", "local_river": "Mahanadi", "state": "Odisha", "district": "CUTTACK", "is_mainstem": true, "is_focus_station": false, "n_obs": 16612, "date_range_start": "2021-06-02", "date_range_end": "2025-11-01", "min_wl_m": 4.82, "max_wl_m": 11.96, "mean_wl_m": 6.747, "days_with_zero_readings": 916, "has_daily_chart": false, "status": "OBSERVED"}, "geometry": {"type": "Point", "coordinates": [86.24916667, 20.46277778]}}, {"type": "Feature", "properties": {"name": "RAJIM", "river": "Mahanadi", "local_river": "Mahanadi", "state": "Chhattisgarh", "district": "GARIABAND", "is_mainstem": true, "is_focus_station": false, "n_obs": 20312, "date_range_start": "2021-01-01", "date_range_end": "2025-12-31", "min_wl_m": 246.28, "max_wl_m": 281.15, "mean_wl_m": 277.284, "days_with_zero_readings": 65, "has_daily_chart": false, "status": "OBSERVED"}, "geometry": {"type": "Point", "coordinates": [81.88055556, 20.975]}}, {"type": "Feature", "properties": {"name": "RAVISHANKAR SAGAR DAM", "river": "Mahanadi", "local_river": "Mahanadi", "state": "Chhattisgarh", "district": "DHAMTARI", "is_mainstem": true, "is_focus_station": false, "n_obs": 15231, "date_range_start": "2021-06-01", "date_range_end": "2025-12-31", "min_wl_m": 337.25, "max_wl_m": 348.75, "mean_wl_m": 345.873, "days_with_zero_readings": 791, "has_daily_chart": false, "status": "OBSERVED"}, "geometry": {"type": "Point", "coordinates": [81.56, 20.61]}}, {"type": "Feature", "properties": {"name": "Rampur", "river": "Mahanadi", "local_river": "Jonk", "state": "Chhattisgarh", "district": "BALODABAZAR", "is_mainstem": false, "is_focus_station": false, "n_obs": 18358, "date_range_start": "2021-01-01", "date_range_end": "2025-11-01", "min_wl_m": 211.36, "max_wl_m": 225.38, "mean_wl_m": 220.398, "days_with_zero_readings": 29, "has_daily_chart": false, "status": "OBSERVED"}, "geometry": {"type": "Point", "coordinates": [82.51611111, 21.64722222]}}, {"type": "Feature", "properties": {"name": "Salebhata", "river": "Mahanadi", "local_river": "Ong", "state": "Odisha", "district": "BALANGIR", "is_mainstem": false, "is_focus_station": false, "n_obs": 20100, "date_range_start": "2021-01-01", "date_range_end": "2025-12-31", "min_wl_m": 99.7, "max_wl_m": 135.73, "mean_wl_m": 130.607, "days_with_zero_readings": 78, "has_daily_chart": false, "status": "OBSERVED"}, "geometry": {"type": "Point", "coordinates": [83.53694444, 20.98305556]}}, {"type": "Feature", "properties": {"name": "Sankara", "river": "Mahanadi", "local_river": "Jonk", "state": "Chhattisgarh", "district": "MAHASAMUND", "is_mainstem": false, "is_focus_station": false, "n_obs": 16734, "date_range_start": "2021-01-01", "date_range_end": "2025-11-01", "min_wl_m": 216.6, "max_wl_m": 267.56, "mean_wl_m": 262.479, "days_with_zero_readings": 701, "has_daily_chart": false, "status": "OBSERVED"}, "geometry": {"type": "Point", "coordinates": [82.65138889, 21.28888889]}}, {"type": "Feature", "properties": {"name": "Sarangpal", "river": "Mahanadi", "local_river": "Mahanadi", "state": "Chhattisgarh", "district": "KANKER", "is_mainstem": true, "is_focus_station": false, "n_obs": 17789, "date_range_start": "2021-01-01", "date_range_end": "2025-12-31", "min_wl_m": 355.35, "max_wl_m": 380.05, "mean_wl_m": 377.833, "days_with_zero_readings": 267, "has_daily_chart": false, "status": "OBSERVED"}, "geometry": {"type": "Point", "coordinates": [81.53305556, 20.31407778]}}, {"type": "Feature", "properties": {"name": "Seorinarayan", "river": "Mahanadi", "local_river": "Mahanadi", "state": "Chhattisgarh", "district": "JANJGIR - CHAMPA", "is_mainstem": true, "is_focus_station": false, "n_obs": 20639, "date_range_start": "2021-01-01", "date_range_end": "2025-12-31", "min_wl_m": 213.54, "max_wl_m": 221.55, "mean_wl_m": 215.331, "days_with_zero_readings": 45, "has_daily_chart": false, "status": "OBSERVED"}, "geometry": {"type": "Point", "coordinates": [82.5975, 21.71833333]}}, {"type": "Feature", "properties": {"name": "Simga", "river": "Mahanadi", "local_river": "Seonath", "state": "Chhattisgarh", "district": "BALODABAZAR", "is_mainstem": false, "is_focus_station": false, "n_obs": 20306, "date_range_start": "2021-01-01", "date_range_end": "2025-11-06", "min_wl_m": 205.51, "max_wl_m": 255.82, "mean_wl_m": 247.731, "days_with_zero_readings": 23, "has_daily_chart": false, "status": "OBSERVED"}, "geometry": {"type": "Point", "coordinates": [81.68472222, 21.63277778]}}, {"type": "Feature", "properties": {"name": "Sundergarh", "river": "Mahanadi", "local_river": "Ib", "state": "Odisha", "district": "SUNDARGARH", "is_mainstem": false, "is_focus_station": false, "n_obs": 20173, "date_range_start": "2021-01-01", "date_range_end": "2025-12-31", "min_wl_m": 215.71, "max_wl_m": 220.26, "mean_wl_m": 217.019, "days_with_zero_readings": 61, "has_daily_chart": false, "status": "OBSERVED"}, "geometry": {"type": "Point", "coordinates": [83.39916667, 22.11527778]}}, {"type": "Feature", "properties": {"name": "Surajgarh", "river": "Mahanadi", "local_river": "Mahanadi", "state": "Chhattisgarh", "district": "RAIGARH", "is_mainstem": true, "is_focus_station": false, "n_obs": 20363, "date_range_start": "2021-01-01", "date_range_end": "2025-12-31", "min_wl_m": 92.33, "max_wl_m": 199.14, "mean_wl_m": 193.5, "days_with_zero_readings": 88, "has_daily_chart": false, "status": "OBSERVED"}, "geometry": {"type": "Point", "coordinates": [83.37722222, 21.69361111]}}, {"type": "Feature", "properties": {"name": "Tarpur", "river": "Mahanadi", "local_river": "Mahanadi", "state": "Odisha", "district": "JAGATSINGHAPUR", "is_mainstem": true, "is_focus_station": false, "n_obs": 18902, "date_range_start": "2021-01-01", "date_range_end": "2025-12-31", "min_wl_m": 5.18, "max_wl_m": 11.65, "mean_wl_m": 7.561, "days_with_zero_readings": 403, "has_daily_chart": false, "status": "OBSERVED"}, "geometry": {"type": "Point", "coordinates": [86.23, 20.35777778]}}, {"type": "Feature", "properties": {"name": "Thethetanger", "river": "Mahanadi", "local_river": "Ib", "state": "Chhattisgarh", "district": "JASHPUR", "is_mainstem": false, "is_focus_station": false, "n_obs": 17277, "date_range_start": "2021-01-01", "date_range_end": "2025-10-31", "min_wl_m": 223.94, "max_wl_m": 358.92, "mean_wl_m": 355.639, "days_with_zero_readings": 258, "has_daily_chart": false, "status": "OBSERVED"}, "geometry": {"type": "Point", "coordinates": [83.93361111, 22.64666667]}}, {"type": "Feature", "properties": {"name": "Tikarpara", "river": "Mahanadi", "local_river": "Mahanadi", "state": "Odisha", "district": "ANUGUL", "is_mainstem": true, "is_focus_station": false, "n_obs": 21165, "date_range_start": "2021-01-01", "date_range_end": "2025-12-30", "min_wl_m": 5.1, "max_wl_m": 72.34, "mean_wl_m": 57.487, "days_with_zero_readings": 48, "has_daily_chart": false, "status": "OBSERVED"}, "geometry": {"type": "Point", "coordinates": [84.78138889, 20.59888889]}}]}