{"type": "FeatureCollection", "properties": {"source": "manifest.safe, S1A_IW_GRDH_1SDV_20220806T122028_20220806T122053_044432_054D5E", "verification_status": "VERIFIED", "srs": "EPSG:4326"}, "features": [{"type": "Feature", "properties": {"product_id": "S1A_IW_GRDH_1SDV_20220806T122028_20220806T122053_044432_054D5E", "date": "2022-08-06", "relative_orbit": 85, "pass_direction": "ASCENDING"}, "geometry": {"type": "Polygon", "coordinates": [[[85.503792, 21.383146], [87.95105, 21.813316], [88.237457, 20.30554], [85.815063, 19.871899], [85.503792, 21.383146]]]}}]}